2025-313BE              
1 67482U 25313BE  26036.72310125  .00103503  00000+0  40965-2 0  9996
2 67482  97.4069 113.6274 0008903 100.3384 259.8858 15.24973835  3091
ION SCV-021             
1 67483U 25276DT  26034.18647169 -.00137880  00000+0 -12184-1 0  9992
2 67483  97.5347 109.4970 0011364 207.9438 152.1175 14.97059561  2554
STARLINK-36551          
1 67493U 26012A   26039.91670139 -.01907142  00000+0 -25742-1 0  9992
2 67493  42.9993 118.3795 0001598 276.9824 108.9085 15.60239890  4448
STARLINK-36396          
1 67494U 26012B   26039.91670139 -.00209277  00000+0 -36404-2 0  9994
2 67494  43.0002 119.0945 0001571 344.5853 111.8406 15.50709509  4440
STARLINK-36550          
1 67495U 26012C   26039.91670139 -.02047257  00000+0 -35013-1 0  9999
2 67495  42.9997 118.5983 0001006 270.8286  26.8090 15.53670644  4446
STARLINK-36534          
1 67496U 26012D   26039.91670139 -.01909261  00000+0 -26664-1 0  9993
2 67496  42.9996 118.3823 0001580 276.0661 108.3147 15.59361908  4387
STARLINK-36555          
1 67497U 26012E   26039.91670139 -.01909972  00000+0 -26765-1 0  9995
2 67497  42.9995 118.3981 0001644 278.8878  99.2037 15.59274223  4449
STARLINK-36081          
1 67498U 26012F   26039.91670139 -.02877581  00000+0 -50521-1 0  9994
2 67498  42.9995 118.5904 0001781 270.5782  29.6277 15.53609991  4386
STARLINK-36558          
1 67499U 26012G   26039.91670139 -.02901028  00000+0 -51026-1 0  9990
2 67499  42.9997 118.5839 0001973 266.5834  36.1575 15.53592308  4446
STARLINK-36557          
1 67500U 26012H   26039.91670139 -.01944365  00000+0 -23932-1 0  9998
2 67500  42.9994 118.2004 0001284 282.4078 174.8350 15.62664107  4447
STARLINK-36433          
1 67501U 26012J   26039.91670139 -.01944311  00000+0 -23589-1 0  9998
2 67501  42.9996 118.1750 0001334 286.6152 180.8224 15.63027236  4446
STARLINK-36554          
1 67502U 26012K   26039.91670139 -.01916178  00000+0 -27919-1 0  9990
2 67502  42.9991 118.3824 0001623 277.3653 106.6749 15.58268736  4387
STARLINK-36552          
1 67503U 26012L   26039.91670139 -.01963044  00000+0 -22891-1 0  9999
2 67503  42.9996 118.1123 0001213 288.1061 204.3944 15.64055035  4444
STARLINK-36512          
1 67504U 26012M   26039.91670139 -.01945364  00000+0 -24540-1 0  9998
2 67504  42.9995 118.1795 0001223 283.9046 181.1501 15.62043202  4448
STARLINK-36545          
1 67505U 26012N   26039.91670139 -.01951336  00000+0 -24083-1 0  9997
2 67505  42.9996 118.1481 0001133 286.1809 191.5056 15.62609250  4445
STARLINK-36553          
1 67506U 26012P   26039.91670139 -.01969958  00000+0 -23063-1 0  9994
2 67506  42.9996 118.0836 0001246 283.6652 220.1559 15.63967003  4443
STARLINK-36521          
1 67507U 26012Q   26039.91670139 -.01949937  00000+0 -22849-1 0  9991
2 67507  42.9997 118.0715 0001142 284.9619 223.5708 15.63910829  4440
STARLINK-36526          
1 67508U 26012R   26039.91670139 -.01941219  00000+0 -22753-1 0  9991
2 67508  42.9997 118.0584 0001164 283.5875 230.3573 15.63889393  4445
STARLINK-36541          
1 67509U 26012S   26039.91670139  .00043747  00000+0  74915-3 0  9997
2 67509  43.0003 118.9495 0000956 290.1620 223.6886 15.50511333  4383
STARLINK-36549          
1 67510U 26012T   26039.91670139 -.01923784  00000+0 -23942-1 0  9992
2 67510  42.9996 117.8924 0001119 272.2179 306.0500 15.62349820  4383
STARLINK-36540          
1 67511U 26012U   26039.91670139 -.00103761  00000+0 -17836-2 0  9993
2 67511  43.0003 118.9269 0001844 282.6836 240.3428 15.50621002  4447
STARLINK-36538          
1 67512U 26012V   26039.91670139 -.01938023  00000+0 -26866-1 0  9994
2 67512  42.9996 118.2099 0001295 281.3528 170.8750 15.59609485  4440
STARLINK-36531          
1 67513U 26012W   26039.91670139 -.01953271  00000+0 -26189-1 0  9995
2 67513  42.9996 118.1579 0001257 285.0306 188.2772 15.60498347  4381
STARLINK-36530          
1 67514U 26012X   26039.91670139 -.01949839  00000+0 -27120-1 0  9997
2 67514  42.9996 118.1875 0001327 277.4261 183.6826 15.59544728  4386
STARLINK-36543          
1 67515U 26012Y   26039.91670139 -.01919216  00000+0 -27696-1 0  9992
2 67515  42.9994 118.2243 0001496 279.0219 167.6328 15.58527590  4389
STARLINK-36537          
1 67516U 26012Z   26039.91670139 -.01947888  00000+0 -26021-1 0  9990
2 67516  42.9998 118.0918 0001157 284.9766 213.9737 15.60584718  4384
STARLINK-36544          
1 67517U 26012AA  26039.91670139 -.01945960  00000+0 -25090-1 0  9995
2 67517  42.9997 118.0699 0001133 283.6953 224.6940 15.61489435  4441
STARLINK-36412          
1 67518U 26012AB  26039.91670139 -.01941344  00000+0 -25801-1 0  9998
2 67518  42.9998 118.0451 0001079 282.8011 235.3321 15.60705212  4382
STARLINK-36415          
1 67519U 26012AC  26039.91670139 -.01938198  00000+0 -25557-1 0  9990
2 67519  42.9997 118.0188 0001065 278.7143 249.4897 15.60902450  4606
STARLINK-36547          
1 67520U 26012AD  26039.91670139 -.01941452  00000+0 -25984-1 0  9993
2 67520  42.9997 118.0645 0001148 285.4131 224.7736 15.60524975  4385
STARLINK-36444          
1 67521U 26012AE  26039.91670139 -.01923401  00000+0 -27429-1 0  9994
2 67521  42.9997 118.1592 0001399 284.5870 187.8127 15.58846118  4382
HULIANWANG DIGUI-146    
1 67522U 26013A   26039.52449169 -.00000016  00000+0  11615-3 0  9998
2 67522  50.0053 104.3195 0004000 343.5772  16.4993 13.82830030  2827
HULIANWANG DIGUI-147    
1 67523U 26013B   26039.37839769 -.00000018  00000+0  11370-3 0  9991
2 67523  50.0070 104.8767 0000803 347.2964  12.7911 13.83183237  2806
HULIANWANG DIGUI-148    
1 67524U 26013C   26039.51929608  .00000004  00000+0  13384-3 0  9991
2 67524  50.0181 104.3957 0002833 153.2013 206.9030 13.83304725  2829
HULIANWANG DIGUI-149    
1 67525U 26013D   26039.58893629 -.00000005  00000+0  12544-3 0  9991
2 67525  50.0066 103.9875 0001971  29.3196 330.7810 13.83393979  2835
HULIANWANG DIGUI-150    
1 67526U 26013E   26039.36624977 -.00000005  00000+0  12462-3 0  9995
2 67526  50.0180 104.9344 0003510 105.3679 254.7604 13.83594584  2827
HULIANWANG DIGUI-151    
1 67527U 26013F   26039.94346049  .00000015  00000+0  13860-3 0  9994
2 67527  50.0093 102.5477 0000425  30.3115 329.7806 13.85565258  2887
HULIANWANG DIGUI-152    
1 67528U 26013G   26039.36470613  .00000016  00000+0  14214-3 0  9991
2 67528  50.0066 104.7990 0000984  46.0388 314.0590 13.84453091  2807
HULIANWANG DIGUI-153    
1 67529U 26013H   26039.57606344 -.00000113  00000+0  27115-4 0  9991
2 67529  50.0018 103.9036 0001415  14.0972 345.9964 13.84535005  2827
HULIANWANG DIGUI-154    
1 67530U 26013J   26039.42934468  .00000085  00000+0  20185-3 0  9994
2 67530  50.0096 104.4834 0000244 334.7360  25.3524 13.85055816  2806
CZ-12 R/B               
1 67531U 26013K   26039.36351880  .00000085  00000+0  12194-3 0  9990
2 67531  49.9934 102.1142 0068796 196.8604 163.0017 14.14457886  2832
STARLINK-36587          
1 67532U 26014A   26039.81054678  .00218411  00000+0  11077-2 0  9999
2 67532  97.2826 283.2643 0001477  67.8186 292.3239 15.80914771  4021
STARLINK-36417          
1 67533U 26014B   26039.91670139 -.00021717  00000+0 -14510-3 0  9996
2 67533  97.2860 283.3480 0001552  85.7563  93.8038 15.75189587  4060
STARLINK-36576          
1 67534U 26014C   26039.74585842  .00165891  00000+0  84778-3 0  9997
2 67534  97.2832 283.1989 0001429  88.4735 271.6697 15.80884485  4013
STARLINK-36574          
1 67535U 26014D   26039.80787695  .00227980  00000+0  11552-2 0  9992
2 67535  97.2831 283.2674 0001331  80.7112 279.4306 15.80908649  4024
STARLINK-36572          
1 67536U 26014E   26039.91670139 -.01138276  00000+0 -82343-2 0  9997
2 67536  97.2837 283.3824 0001667  87.0362 170.0579 15.76024362  4066
STARLINK-36561          
1 67537U 26014F   26039.91670139  .00126078  00000+0  83432-3 0  9993
2 67537  97.2842 283.3656 0002042 108.4621 115.0031 15.75172732  4066
STARLINK-36397          
1 67538U 26014G   26039.91670139 -.00016604  00000+0 -11070-3 0  9998
2 67538  97.2842 283.3566 0001406  86.3840 115.1745 15.75182049  4062
STARLINK-36573          
1 67539U 26014H   26039.80377500  .00160657  00000+0  82145-3 0  9990
2 67539  97.2844 283.2715 0001352  86.2724 273.8699 15.80887248  4025
STARLINK-36585          
1 67540U 26014J   26039.91670139 -.00045809  00000+0 -30771-3 0  9999
2 67540  97.2842 283.3740 0001549 106.3321 141.2175 15.75203617  4066
STARLINK-36579          
1 67541U 26014K   26039.92912228 -.00809327  00000+0 -53419-2 0  9995
2 67541  97.2841 283.4083 0001200 120.4358 239.7027 15.77669846  4047
STARLINK-35934          
1 67542U 26014L   26039.86343808  .00302196  00000+0  15148-2 0  9998
2 67542  97.2847 283.3435 0001520  99.2293 260.9147 15.80954108  4029
STARLINK-36581          
1 67543U 26014M   26039.86224423  .00324015  00000+0  16199-2 0  9991
2 67543  97.2846 283.3443 0001457 104.8116 255.3314 15.80955914  4035
STARLINK-36565          
1 67544U 26014N   26039.79789224  .00127355  00000+0  65336-3 0  9995
2 67544  97.2851 283.2787 0001342  88.8975 271.2447 15.80902869  4023
STARLINK-36583          
1 67545U 26014P   26039.91670139 -.00087436  00000+0 -59030-3 0  9995
2 67545  97.2842 283.3844 0001233 101.6741 167.8618 15.75231328  4066
STARLINK-36580          
1 67546U 26014Q   26039.85876356  .00050397  00000+0  26271-3 0  9993
2 67546  97.2817 283.3476 0001549 348.1277  11.9955 15.80783797  4030
STARLINK-36584          
1 67547U 26014R   26039.85778757  .00247303  00000+0  12499-2 0  9991
2 67547  97.2762 283.3453 0001187  93.3249 266.8155 15.80916088  4035
STARLINK-36586          
1 67548U 26014S   26039.85642192  .00171167  00000+0  87410-3 0  9995
2 67548  97.2853 283.3530 0001424  99.7543 260.3886 15.80886768  4035
STARLINK-36564          
1 67549U 26014T   26039.91670139 -.00070141  00000+0 -47282-3 0  9990
2 67549  97.2851 283.4094 0001684 104.5338 221.0104 15.75209719  4008
